COSMOS 2242             
1 22626U 93024A   26084.94992059  .00002115  00000+0  18305-3 0  9991
2 22626  82.5160 251.1585 0014961 248.8587 111.1037 14.96615770782829
SL-16 R/B               
1 22803U 93059B   26085.13406121 -.00000095  00000+0 -23196-4 0  9990
2 22803  70.9925 336.4513 0017557 192.7342 167.3341 14.17235430681861
ARIANE 40 R/B           
1 22830U 93061H   26085.10870029  .00000215  00000+0  94599-4 0  9999
2 22830  98.4886 153.6701 0009865 231.0065 129.0241 14.32869473696454
COSMOS 2278             
1 23087U 94023A   26085.28848103 -.00000253  00000+0 -10737-3 0  9995
2 23087  71.0524 140.3730 0009063 346.8986  13.1900 14.14376432647153
SL-16 R/B               
1 23088U 94023B   26085.25681973  .00000325  00000+0  19259-3 0  9999
2 23088  71.0010  36.0921 0005449 269.9196  90.1302 14.15013355648435
SL-16 R/B               
1 23343U 94074B   26085.09415306  .00000449  00000+0  66751-4 0  9993
2 23343  97.7085 115.2460 0007090 156.3595 267.8429 14.79425769689670
SL-16 R/B               
1 23405U 94077B   26085.09063158  .00000045  00000+0  47698-4 0  9990
2 23405  70.9839 317.9867 0002112 198.2700 161.8347 14.15569000618552
ARIANE 40+ R/B          
1 23561U 95021B   26085.20951349  .00000294  00000+0  10774-3 0  9994
2 23561  98.4468 156.4660 0007972  93.8562 284.8129 14.39784026621629
SL-16 R/B               
1 23705U 95058B   26085.31040997 -.00000224  00000+0 -90236-4 0  9991
2 23705  71.0210 145.3630 0010116  94.9801 265.2477 14.15500069570200
SL-16 R/B               
1 24298U 96051B   26085.31321378  .00000084  00000+0  71853-4 0  9994
2 24298  70.7590 140.0553 0013706 121.4246 238.8216 14.12420276523997
ORBVIEW 2 (SEASTAR)     
1 24883U 97037A   26085.07661377  .00000287  00000+0  11597-3 0  9991
2 24883  98.8597 249.8251 0002543  37.2481 322.8879 14.35505988510826
SL-16 R/B               
1 25400U 98043G   26085.29012179  .00000082  00000+0  53487-4 0  9997
2 25400  98.8282  38.7741 0009332 332.3093  27.7588 14.26053545441359
