CCSDS_OMM_VERS = 2.0
CREATION_DATE  = 
ORIGINATOR     = 

OBJECT_NAME    = COSMOS 2242
OBJECT_ID      = 1993-024A
CENTER_NAME    = EARTH
REF_FRAME      = TEME
TIME_SYSTEM    = UTC
MEAN_ELEMENT_THEORY = SGP/SGP4

EPOCH          = 2026-03-25T22:47:53.138976
MEAN_MOTION    = 14.96615770
ECCENTRICITY   = .0014961
INCLINATION    = 82.5160
RA_OF_ASC_NODE = 251.1585
ARG_OF_PERICENTER = 248.8587
MEAN_ANOMALY   = 111.1037

EPHEMERIS_TYPE = 0
CLASSIFICATION_TYPE = U
NORAD_CAT_ID   = 22626
ELEMENT_SET_NO = 999
REV_AT_EPOCH   = 78282
BSTAR          = .18305E-3
MEAN_MOTION_DOT = .2115E-4
MEAN_MOTION_DDOT = 0

CCSDS_OMM_VERS = 2.0
CREATION_DATE  = 
ORIGINATOR     = 

OBJECT_NAME    = SL-16 R/B
OBJECT_ID      = 1993-059B
CENTER_NAME    = EARTH
REF_FRAME      = TEME
TIME_SYSTEM    = UTC
MEAN_ELEMENT_THEORY = SGP/SGP4

EPOCH          = 2026-03-26T03:13:02.888544
MEAN_MOTION    = 14.17235430
ECCENTRICITY   = .00175571
INCLINATION    = 70.9925
RA_OF_ASC_NODE = 336.4513
ARG_OF_PERICENTER = 192.7342
MEAN_ANOMALY   = 167.3341

EPHEMERIS_TYPE = 0
CLASSIFICATION_TYPE = U
NORAD_CAT_ID   = 22803
ELEMENT_SET_NO = 999
REV_AT_EPOCH   = 68186
BSTAR          = -.23196208E-4
MEAN_MOTION_DOT = -.95E-6
MEAN_MOTION_DDOT = 0

CCSDS_OMM_VERS = 2.0
CREATION_DATE  = 
ORIGINATOR     = 

OBJECT_NAME    = ARIANE 40 R/B
OBJECT_ID      = 1993-061H
CENTER_NAME    = EARTH
REF_FRAME      = TEME
TIME_SYSTEM    = UTC
MEAN_ELEMENT_THEORY = SGP/SGP4

EPOCH          = 2026-03-26T02:36:31.705056
MEAN_MOTION    = 14.32869473
ECCENTRICITY   = .00098652
INCLINATION    = 98.4886
RA_OF_ASC_NODE = 153.6701
ARG_OF_PERICENTER = 231.0065
MEAN_ANOMALY   = 129.0241

EPHEMERIS_TYPE = 0
CLASSIFICATION_TYPE = U
NORAD_CAT_ID   = 22830
ELEMENT_SET_NO = 999
REV_AT_EPOCH   = 69645
BSTAR          = .94598959E-4
MEAN_MOTION_DOT = .215E-5
MEAN_MOTION_DDOT = 0

CCSDS_OMM_VERS = 2.0
CREATION_DATE  = 
ORIGINATOR     = 

OBJECT_NAME    = COSMOS 2278
OBJECT_ID      = 1994-023A
CENTER_NAME    = EARTH
REF_FRAME      = TEME
TIME_SYSTEM    = UTC
MEAN_ELEMENT_THEORY = SGP/SGP4

EPOCH          = 2026-03-26T06:55:24.760992
MEAN_MOTION    = 14.14376432
ECCENTRICITY   = .00090632
INCLINATION    = 71.0524
RA_OF_ASC_NODE = 140.3730
ARG_OF_PERICENTER = 346.8986
MEAN_ANOMALY   = 13.1900

EPHEMERIS_TYPE = 0
CLASSIFICATION_TYPE = U
NORAD_CAT_ID   = 23087
ELEMENT_SET_NO = 999
REV_AT_EPOCH   = 64715
BSTAR          = -.10737141E-3
MEAN_MOTION_DOT = -.253E-5
MEAN_MOTION_DDOT = 0

CCSDS_OMM_VERS = 2.0
CREATION_DATE  = 
ORIGINATOR     = 

OBJECT_NAME    = SL-16 R/B
OBJECT_ID      = 1994-023B
CENTER_NAME    = EARTH
REF_FRAME      = TEME
TIME_SYSTEM    = UTC
MEAN_ELEMENT_THEORY = SGP/SGP4

EPOCH          = 2026-03-26T06:09:49.224672
MEAN_MOTION    = 14.15013355
ECCENTRICITY   = .00054497
INCLINATION    = 71.0010
RA_OF_ASC_NODE = 36.0921
ARG_OF_PERICENTER = 269.9196
MEAN_ANOMALY   = 90.1302

EPHEMERIS_TYPE = 0
CLASSIFICATION_TYPE = U
NORAD_CAT_ID   = 23088
ELEMENT_SET_NO = 999
REV_AT_EPOCH   = 64843
BSTAR          = .19258848E-3
MEAN_MOTION_DOT = .325E-5
MEAN_MOTION_DDOT = 0

CCSDS_OMM_VERS = 2.0
CREATION_DATE  = 
ORIGINATOR     = 

OBJECT_NAME    = SL-16 R/B
OBJECT_ID      = 1994-074B
CENTER_NAME    = EARTH
REF_FRAME      = TEME
TIME_SYSTEM    = UTC
MEAN_ELEMENT_THEORY = SGP/SGP4

EPOCH          = 2026-03-26T02:15:34.824384
MEAN_MOTION    = 14.79425769
ECCENTRICITY   = .00070907
INCLINATION    = 97.7085
RA_OF_ASC_NODE = 115.2460
ARG_OF_PERICENTER = 156.3595
MEAN_ANOMALY   = 267.8429

EPHEMERIS_TYPE = 0
CLASSIFICATION_TYPE = U
NORAD_CAT_ID   = 23343
ELEMENT_SET_NO = 999
REV_AT_EPOCH   = 68967
BSTAR          = .66750594E-4
MEAN_MOTION_DOT = .449E-5
MEAN_MOTION_DDOT = 0

CCSDS_OMM_VERS = 2.0
CREATION_DATE  = 
ORIGINATOR     = 

OBJECT_NAME    = SL-16 R/B
OBJECT_ID      = 1994-077B
CENTER_NAME    = EARTH
REF_FRAME      = TEME
TIME_SYSTEM    = UTC
MEAN_ELEMENT_THEORY = SGP/SGP4

EPOCH          = 2026-03-26T02:10:30.568512
MEAN_MOTION    = 14.15569000
ECCENTRICITY   = .00021127
INCLINATION    = 70.9839
RA_OF_ASC_NODE = 317.9867
ARG_OF_PERICENTER = 198.2700
MEAN_ANOMALY   = 161.8347

EPHEMERIS_TYPE = 0
CLASSIFICATION_TYPE = U
NORAD_CAT_ID   = 23405
ELEMENT_SET_NO = 999
REV_AT_EPOCH   = 61855
BSTAR          = .47698336E-4
MEAN_MOTION_DOT = .45E-6
MEAN_MOTION_DDOT = 0

CCSDS_OMM_VERS = 2.0
CREATION_DATE  = 
ORIGINATOR     = 

OBJECT_NAME    = ARIANE 40+ R/B
OBJECT_ID      = 1995-021B
CENTER_NAME    = EARTH
REF_FRAME      = TEME
TIME_SYSTEM    = UTC
MEAN_ELEMENT_THEORY = SGP/SGP4

EPOCH          = 2026-03-26T05:01:41.965536
MEAN_MOTION    = 14.39784026
ECCENTRICITY   = .00079722
INCLINATION    = 98.4468
RA_OF_ASC_NODE = 156.4660
ARG_OF_PERICENTER = 93.8562
MEAN_ANOMALY   = 284.8129

EPHEMERIS_TYPE = 0
CLASSIFICATION_TYPE = U
NORAD_CAT_ID   = 23561
ELEMENT_SET_NO = 999
REV_AT_EPOCH   = 62162
BSTAR          = .10774154E-3
MEAN_MOTION_DOT = .294E-5
MEAN_MOTION_DDOT = 0

CCSDS_OMM_VERS = 2.0
CREATION_DATE  = 
ORIGINATOR     = 

OBJECT_NAME    = SL-16 R/B
OBJECT_ID      = 1995-058B
CENTER_NAME    = EARTH
REF_FRAME      = TEME
TIME_SYSTEM    = UTC
MEAN_ELEMENT_THEORY = SGP/SGP4

EPOCH          = 2026-03-26T07:26:59.421408
MEAN_MOTION    = 14.15500069
ECCENTRICITY   = .00101165
INCLINATION    = 71.0210
RA_OF_ASC_NODE = 145.3630
ARG_OF_PERICENTER = 94.9801
MEAN_ANOMALY   = 265.2477

EPHEMERIS_TYPE = 0
CLASSIFICATION_TYPE = U
NORAD_CAT_ID   = 23705
ELEMENT_SET_NO = 999
REV_AT_EPOCH   = 57020
BSTAR          = -.90235736E-4
MEAN_MOTION_DOT = -.224E-5
MEAN_MOTION_DDOT = 0

CCSDS_OMM_VERS = 2.0
CREATION_DATE  = 
ORIGINATOR     = 

OBJECT_NAME    = SL-16 R/B
OBJECT_ID      = 1996-051B
CENTER_NAME    = EARTH
REF_FRAME      = TEME
TIME_SYSTEM    = UTC
MEAN_ELEMENT_THEORY = SGP/SGP4

EPOCH          = 2026-03-26T07:31:01.670592
MEAN_MOTION    = 14.12420276
ECCENTRICITY   = .0013706
INCLINATION    = 70.7590
RA_OF_ASC_NODE = 140.0553
ARG_OF_PERICENTER = 121.4246
MEAN_ANOMALY   = 238.8216

EPHEMERIS_TYPE = 0
CLASSIFICATION_TYPE = U
NORAD_CAT_ID   = 24298
ELEMENT_SET_NO = 999
REV_AT_EPOCH   = 52399
BSTAR          = .71852879E-4
MEAN_MOTION_DOT = .84E-6
MEAN_MOTION_DDOT = 0

CCSDS_OMM_VERS = 2.0
CREATION_DATE  = 
ORIGINATOR     = 

OBJECT_NAME    = ORBVIEW 2 (SEASTAR)
OBJECT_ID      = 1997-037A
CENTER_NAME    = EARTH
REF_FRAME      = TEME
TIME_SYSTEM    = UTC
MEAN_ELEMENT_THEORY = SGP/SGP4

EPOCH          = 2026-03-26T01:50:19.429728
MEAN_MOTION    = 14.35505988
ECCENTRICITY   = .00025436
INCLINATION    = 98.8597
RA_OF_ASC_NODE = 249.8251
ARG_OF_PERICENTER = 37.2481
MEAN_ANOMALY   = 322.8879

EPHEMERIS_TYPE = 0
CLASSIFICATION_TYPE = U
NORAD_CAT_ID   = 24883
ELEMENT_SET_NO = 999
REV_AT_EPOCH   = 51082
BSTAR          = .11597212E-3
MEAN_MOTION_DOT = .287E-5
MEAN_MOTION_DDOT = 0

CCSDS_OMM_VERS = 2.0
CREATION_DATE  = 
ORIGINATOR     = 

OBJECT_NAME    = SL-16 R/B
OBJECT_ID      = 1998-043G
CENTER_NAME    = EARTH
REF_FRAME      = TEME
TIME_SYSTEM    = UTC
MEAN_ELEMENT_THEORY = SGP/SGP4

EPOCH          = 2026-03-26T06:57:46.522656
MEAN_MOTION    = 14.26053545
ECCENTRICITY   = .00093326
INCLINATION    = 98.8282
RA_OF_ASC_NODE = 38.7741
ARG_OF_PERICENTER = 332.3093
MEAN_ANOMALY   = 27.7588

EPHEMERIS_TYPE = 0
CLASSIFICATION_TYPE = U
NORAD_CAT_ID   = 25400
ELEMENT_SET_NO = 999
REV_AT_EPOCH   = 44135
BSTAR          = .53486611E-4
MEAN_MOTION_DOT = .82E-6
MEAN_MOTION_DDOT = 0

